{"fetched_at":"2026-03-29T02:12:04Z","count":15717,"tles":[{"name":"STARLINK-11693 [DTC]","line1":"1 63763U 25089N   26087.55361966  .00261832  00000+0  19682-2 0  9992","line2":"2 63763  43.0012 178.4154 0000951 248.7978 111.2789 15.70987491 52992","category":"Starlink"}]}