{
  "norad_id": 63763,
  "name": "STARLINK-11693 [DTC]",
  "history": [
    {
      "epoch": "2026-03-28T13:17:12.738624Z",
      "apogee_km": 356.7142304593481,
      "perigee_km": 355.43284487824076,
      "latitude_deg": 6.392622999463209e-05,
      "longitude_deg": 153.1399823365551,
      "height_km": 356.0773340448884,
      "semi_major_axis_km": 6734.210537668794,
      "eccentricity": 9.514e-05,
      "inclination_deg": 43.0012,
      "raan_deg": 178.4154,
      "arg_perigee_deg": 248.7978,
      "mean_anomaly_deg": 111.2789,
      "mean_motion_rev_day": 15.70987491
    }
  ]
}